NORAD_CAT_ID,OBJECT_NAME,OBJECT_TYPE,EPOCH,MEAN_MOTION,ECCENTRICITY,INCLINATION,RA_OF_ASC_NODE,ARG_OF_PERICENTER,MEAN_ANOMALY,BSTAR,MEAN_MOTION_DOT,MEAN_MOTION_DDOT,TLE_LINE0,TLE_LINE1,TLE_LINE2,SEMIMAJOR_AXIS,PERIOD,APOGEE,PERIGEE,DECAYED
53561.0,STARLINK-4563,PAYLOAD,2024-06-04 18:54:51,15.08826531,0.0001526,53.2181,70.2206,83.8613,276.2553,-2.473e-05,-6.81e-06,0.0,0 STARLINK-4563,1 53561U 22101AL  24156.78810010 -.00000681  00000-0 -24730-4 0  9996,2 53561  53.2181  70.2206 0001526  83.8613 276.2553 15.08826531 99256,6917.922,95.438,540.842,538.731,0.0
53561.0,STARLINK-4563,PAYLOAD,2024-06-05 04:27:10,15.08831144,0.0001362,53.2183,68.4371,88.5089,271.6059,4.72e-05,4.63e-06,0.0,0 STARLINK-4563,1 53561U 22101AL  24157.18553748  .00000463  00000-0  47200-4 0  9996,2 53561  53.2183  68.4371 0001362  88.5089 271.6059 15.08831144 99310,6917.907,95.438,540.715,538.83,0.0
53561.0,STARLINK-4563,PAYLOAD,2024-06-06 10:39:28,15.08858203,0.0001233,53.2179,62.7855,79.3332,280.7799,9.2033e-05,1.178e-05,0.0,0 STARLINK-4563,1 53561U 22101AL  24158.44408099  .00001178  00000-0  92033-4 0  9992,2 53561  53.2179  62.7855 0001233  79.3332 280.7799 15.08858203 99503,6917.825,95.436,540.543,538.837,0.0
53561.0,STARLINK-4563,PAYLOAD,2024-06-07 16:51:49,15.08845244,0.0002103,53.216,57.1356,79.0879,281.0349,0.00015977,2.256e-05,0.0,0 STARLINK-4563,1 53561U 22101AL  24159.70265462  .00002256  00000-0  15977-3 0  9996,2 53561  53.2160  57.1356 0002103  79.0879 281.0349 15.08845244 99693,6917.864,95.437,541.184,538.275,0.0
53561.0,STARLINK-4563,PAYLOAD,2024-06-07 23:13:22,15.0882059,0.0001212,53.2166,55.9476,81.3665,278.7465,0.00027455,4.082e-05,0.0,0 STARLINK-4563,1 53561U 22101AL  24159.96762412  .00004082  00000-0  27455-3 0  9994,2 53561  53.2166  55.9476 0001212  81.3665 278.7465 15.08820590 99731,6917.94,95.439,540.643,538.966,0.0
53561.0,STARLINK-4563,PAYLOAD,2024-06-08 10:21:02,15.08872603,0.0001181,53.2199,53.8638,84.9476,275.1651,-8.4114e-05,-1.628e-05,0.0,0 STARLINK-4563,1 53561U 22101AL  24160.43127649 -.00001628  00000-0 -84114-4 0  9996,2 53561  53.2199  53.8638 0001181  84.9476 275.1651 15.08872603 99806,6917.781,95.435,540.463,538.829,0.0
53561.0,STARLINK-4563,PAYLOAD,2024-06-08 21:28:47,15.08826461,0.0001848,53.2174,51.7838,89.2837,270.8367,3.0083e-05,1.91e-06,0.0,0 STARLINK-4563,1 53561U 22101AL  24160.89498851  .00000191  00000-0  30083-4 0  9990,2 53561  53.2174  51.7838 0001848  89.2837 270.8367 15.08826461 99871,6917.922,95.438,541.065,538.508,0.0
53561.0,STARLINK-4563,PAYLOAD,2024-06-08 23:04:10,15.08825495,0.0001703,53.2178,51.4852,91.4747,268.644,2.0762e-05,4.2e-07,0.0,0 STARLINK-4563,1 53561U 22101AL  24160.96122967  .00000042  00000-0  20762-4 0  9998,2 53561  53.2178  51.4852 0001703  91.4747 268.6440 15.08825495 99887,6917.925,95.438,540.968,538.612,0.0
53561.0,STARLINK-4563,PAYLOAD,2024-06-09 22:54:56,15.08837588,0.0001373,53.2179,47.0266,91.2365,268.8785,0.00015755,2.22e-05,0.0,0 STARLINK-4563,1 53561U 22101AL  24161.95482282  .00002220  00000-0  15755-3 0  9992,2 53561  53.2179  47.0266 0001373  91.2365 268.8785 15.08837588100035,6917.888,95.438,540.703,538.803,0.0
53561.0,STARLINK-4563,PAYLOAD,2024-06-10 21:10:18,15.08872112,0.0001628,53.2178,42.8638,84.4425,275.6753,-0.00082673,-0.00013433,0.0,0 STARLINK-4563,1 53561U 22101AL  24162.88216191 -.00013433  00000-0 -82673-3 0  9992,2 53561  53.2178  42.8638 0001628  84.4425 275.6753 15.08872112100172,6917.782,95.436,540.773,538.521,0.0
53561.0,STARLINK-4563,PAYLOAD,2024-06-10 22:45:44,15.08837617,0.000134,53.2172,42.5683,82.2509,277.8636,0.00024234,3.571e-05,0.0,0 STARLINK-4563,1 53561U 22101AL  24162.94842610  .00003571  00000-0  24234-3 0  9999,2 53561  53.2172  42.5683 0001340  82.2509 277.8636 15.08837617100189,6917.888,95.438,540.68,538.826,0.0
53561.0,STARLINK-4563,PAYLOAD,2024-06-11 01:56:30,15.08842687,0.000126,53.2168,41.9726,80.9925,279.121,0.00021665,3.162e-05,0.0,0 STARLINK-4563,1 53561U 22101AL  24163.08090306  .00003162  00000-0  21665-3 0  9993,2 53561  53.2168  41.9726 0001260  80.9925 279.1210 15.08842687100202,6917.872,95.437,540.609,538.866,0.0
53561.0,STARLINK-4563,PAYLOAD,2024-06-11 22:36:32,15.08811522,0.0001363,53.217,38.1031,93.4427,266.6721,0.00076271,0.00011862,0.0,0 STARLINK-4563,1 53561U 22101AL  24163.94203818  .00011862  00000-0  76271-3 0  9991,2 53561  53.2170  38.1031 0001363  93.4427 266.6721 15.08811522100338,6917.967,95.439,540.775,538.89,0.0
53561.0,STARLINK-4563,PAYLOAD,2024-06-12 08:08:49,15.0884765,0.0001252,53.2188,36.3208,93.5706,266.543,0.00015085,2.114e-05,0.0,0 STARLINK-4563,1 53561U 22101AL  24164.33945843  .00002114  00000-0  15085-3 0  9992,2 53561  53.2188  36.3208 0001252  93.5706 266.5430 15.08847650100394,6917.857,95.437,540.588,538.856,0.0
53561.0,STARLINK-4563,PAYLOAD,2024-06-12 20:51:56,15.08826314,0.0001413,53.2181,33.9396,73.4048,286.7099,-2.2088e-05,-6.39e-06,0.0,0 STARLINK-4563,1 53561U 22101AL  24164.86939876 -.00000639  00000-0 -22088-4 0  9993,2 53561  53.2181  33.9396 0001413  73.4048 286.7099 15.08826314100471,6917.922,95.438,540.765,538.81,0.0
53561.0,STARLINK-4563,PAYLOAD,2024-06-13 07:59:36,15.08842676,0.0001528,53.2197,31.8614,85.2597,274.857,0.0001102,1.466e-05,0.0,0 STARLINK-4563,1 53561U 22101AL  24165.33306668  .00001466  00000-0  11020-3 0  9993,2 53561  53.2197  31.8614 0001528  85.2597 274.8570 15.08842676100544,6917.872,95.437,540.794,538.68,0.0
53561.0,STARLINK-4563,PAYLOAD,2024-06-13 22:18:05,15.0883927,0.0001358,53.2196,29.1868,92.3539,267.7609,0.00016407,2.324e-05,0.0,0 STARLINK-4563,1 53561U 22101AL  24165.92922862  .00002324  00000-0  16407-3 0  9996,2 53561  53.2196  29.1868 0001358  92.3539 267.7609 15.08839270100630,6917.883,95.438,540.687,538.808,0.0
53561.0,STARLINK-4563,PAYLOAD,2024-06-13 23:53:28,15.08842331,0.000139,53.2194,28.8898,94.5661,265.549,0.00016215,2.294e-05,0.0,0 STARLINK-4563,1 53561U 22101AL  24165.99546696  .00002294  00000-0  16215-3 0  9993,2 53561  53.2194  28.8898 0001390  94.5661 265.5490 15.08842331100640,6917.873,95.437,540.7,538.777,0.0
53561.0,STARLINK-4563,PAYLOAD,2024-06-14 22:08:52,15.08840829,0.000155,53.2199,24.7233,87.1992,272.9178,0.00013213,1.816e-05,0.0,0 STARLINK-4563,1 53561U 22101AL  24166.92282962  .00001816  00000-0  13213-3 0  9994,2 53561  53.2199  24.7233 0001550  87.1992 272.9178 15.08840829100786,6917.878,95.438,540.815,538.671,0.0
53561.0,STARLINK-4563,PAYLOAD,2024-06-15 07:41:10,15.08854522,0.0001379,53.219,22.9401,89.939,270.176,0.00018964,2.733e-05,0.0,0 STARLINK-4563,1 53561U 22101AL  24167.32025808  .00002733  00000-0  18964-3 0  9990,2 53561  53.2190  22.9401 0001379  89.9390 270.1760 15.08854522100844,6917.836,95.437,540.655,538.747,0.0
53561.0,STARLINK-4563,PAYLOAD,2024-06-15 21:59:39,15.08845431,0.0001334,53.2184,20.2645,93.7285,266.3859,4.9083e-05,4.93e-06,0.0,0 STARLINK-4563,1 53561U 22101AL  24167.91642574  .00000493  00000-0  49083-4 0  9998,2 53561  53.2184  20.2645 0001334  93.7285 266.3859 15.08845431100930,6917.864,95.437,540.652,538.806,0.0
53561.0,STARLINK-4563,PAYLOAD,2024-06-16 13:53:30,15.08848446,0.0001211,53.2182,17.2897,95.411,264.7021,8.3069e-05,1.035e-05,0.0,0 STARLINK-4563,1 53561U 22101AL  24168.57882179  .00001035  00000-0  83069-4 0  9993,2 53561  53.2182  17.2897 0001211  95.4110 264.7021 15.08848446101037,6917.855,95.437,540.557,538.882,0.0
53561.0,STARLINK-4563,PAYLOAD,2024-06-16 20:15:03,15.08839252,0.0001229,53.2183,16.0999,87.0438,273.0695,-2.4875e-05,-6.84e-06,0.0,0 STARLINK-4563,1 53561U 22101AL  24168.84378633 -.00000684  00000-0 -24875-4 0  9999,2 53561  53.2183  16.0999 0001229  87.0438 273.0695 15.08839252101076,6917.883,95.438,540.598,538.897,0.0
53561.0,STARLINK-4563,PAYLOAD,2024-06-17 20:05:50,15.08841556,0.0001258,53.2191,11.6393,88.3706,271.743,3.8509e-05,3.25e-06,0.0,0 STARLINK-4563,1 53561U 22101AL  24169.83738622  .00000325  00000-0  38509-4 0  9996,2 53561  53.2191  11.6393 0001258  88.3706 271.7430 15.08841556101227,6917.876,95.437,540.611,538.87,0.0
53561.0,STARLINK-4563,PAYLOAD,2024-06-18 19:56:37,15.08836066,0.0001339,53.2198,7.1789,89.58,270.5345,8.2118e-05,1.019e-05,0.0,0 STARLINK-4563,1 53561U 22101AL  24170.83098939  .00001019  00000-0  82118-4 0  9994,2 53561  53.2198   7.1789 0001339  89.5800 270.5345 15.08836066101379,6917.892,95.438,540.684,538.831,0.0
53561.0,STARLINK-4563,PAYLOAD,2024-06-19 19:47:24,15.08836732,0.0001264,53.2187,2.7183,87.8414,272.2723,4.5508e-05,4.36e-06,0.0,0 STARLINK-4563,1 53561U 22101AL  24171.82459173  .00000436  00000-0  45508-4 0  9999,2 53561  53.2187   2.7183 0001264  87.8414 272.2723 15.08836732101521,6917.89,95.438,540.63,538.881,0.0
53561.0,STARLINK-4563,PAYLOAD,2024-06-20 11:41:15,15.08839778,0.0001611,53.2186,359.7483,90.6276,269.4901,8.8478e-05,1.12e-05,0.0,0 STARLINK-4563,1 53561U 22101AL  24172.48699043  .00001120  00000-0  88478-4 0  9998,2 53561  53.2186 359.7483 0001611  90.6276 269.4901 15.08839778101622,6917.881,95.438,540.861,538.632,0.0
53561.0,STARLINK-4563,PAYLOAD,2024-06-20 21:13:35,15.08834794,0.0001289,53.2188,357.9623,96.3565,263.7574,3.6695e-05,2.96e-06,0.0,0 STARLINK-4563,1 53561U 22101AL  24172.88443522  .00000296  00000-0  36695-4 0  9998,2 53561  53.2188 357.9623 0001289  96.3565 263.7574 15.08834794101687,6917.896,95.438,540.653,538.87,0.0
53561.0,STARLINK-4563,PAYLOAD,2024-06-21 19:28:59,15.08828751,0.000127,53.2188,353.801,105.0035,255.1098,-7.0452e-06,-4e-06,0.0,0 STARLINK-4563,1 53561U 22101AL  24173.81180519 -.00000400  00000-0 -70452-5 0  9995,2 53561  53.2188 353.8010 0001270 105.0035 255.1098 15.08828751101820,6917.915,95.438,540.658,538.901,0.0
53561.0,STARLINK-4563,PAYLOAD,2024-06-22 17:44:23,15.08842913,0.0001297,53.2185,349.6355,71.1413,288.9719,0.00010719,1.419e-05,0.0,0 STARLINK-4563,1 53561U 22101AL  24174.73915649  .00001419  00000-0  10719-3 0  9994,2 53561  53.2185 349.6355 0001297  71.1413 288.9719 15.08842913101969,6917.871,95.437,540.634,538.839,0.0
